{
  "links" : {
    "next" : "https://api.nasa.gov/neo/rest/v1/feed?start_date=2013-04-16&end_date=2013-04-16&detailed=true&api_key=t0TVs3DtDT2H8Oy2Zy8m2eVrNsAVKAexjcZXUckd",
    "prev" : "https://api.nasa.gov/neo/rest/v1/feed?start_date=2013-04-14&end_date=2013-04-14&detailed=true&api_key=t0TVs3DtDT2H8Oy2Zy8m2eVrNsAVKAexjcZXUckd",
    "self" : "https://api.nasa.gov/neo/rest/v1/feed?start_date=2013-04-15&end_date=2013-04-15&detailed=true&api_key=t0TVs3DtDT2H8Oy2Zy8m2eVrNsAVKAexjcZXUckd"
  },
  "element_count" : 10,
  "near_earth_objects" : {
    "2013-04-15" : [ {
      "links" : {
        "self" : "https://api.nasa.gov/neo/rest/v1/neo/3634904?api_key=t0TVs3DtDT2H8Oy2Zy8m2eVrNsAVKAexjcZXUckd"
      },
      "neo_reference_id" : "3634904",
      "name" : "(2013 GH84)",
      "nasa_jpl_url" : "http://ssd.jpl.nasa.gov/sbdb.cgi?sstr=3634904",
      "absolute_magnitude_h" : 20.7,
      "estimated_diameter" : {
        "kilometers" : {
          "estimated_diameter_min" : 0.1925550782,
          "estimated_diameter_max" : 0.4305662442
        },
        "meters" : {
          "estimated_diameter_min" : 192.5550781879,
          "estimated_diameter_max" : 430.566244241
        },
        "miles" : {
          "estimated_diameter_min" : 0.1196481415,
          "estimated_diameter_max" : 0.2675413778
        },
        "feet" : {
          "estimated_diameter_min" : 631.7424027221,
          "estimated_diameter_max" : 1412.6189567557
        }
      },
      "is_potentially_hazardous_asteroid" : true,
      "close_approach_data" : [ {
        "close_approach_date" : "2013-04-15",
        "epoch_date_close_approach" : 1366009200000,
        "relative_velocity" : {
          "kilometers_per_second" : "13.6469072957",
          "kilometers_per_hour" : "49128.8662645679",
          "miles_per_hour" : "30526.7669297811"
        },
        "miss_distance" : {
          "astronomical" : "0.2151153988",
          "lunar" : "83.6798934937",
          "kilometers" : "32180806",
          "miles" : "19996226"
        },
        "orbiting_body" : "Earth"
      } ],
      "orbital_data" : {
        "orbit_id" : "16",
        "orbit_determination_date" : "2017-04-06 08:46:05",
        "orbit_uncertainty" : "1",
        "minimum_orbit_intersection" : ".0242192",
        "jupiter_tisserand_invariant" : "4.310",
        "epoch_osculation" : "2458000.5",
        "eccentricity" : ".3713300996356434",
        "semi_major_axis" : "1.564441200467114",
        "inclination" : "14.90162545939542",
        "ascending_node_longitude" : "53.37510902081838",
        "orbital_period" : "714.7222364885465",
        "perihelion_distance" : ".983517093623555",
        "perihelion_argument" : "186.3937701352744",
        "aphelion_distance" : "2.145365307310673",
        "perihelion_time" : "2457847.471668934468",
        "mean_anomaly" : "77.07917337825015",
        "mean_motion" : ".5036921780532416",
        "equinox" : "J2000"
      }
    }, {
      "links" : {
        "self" : "https://api.nasa.gov/neo/rest/v1/neo/3720004?api_key=t0TVs3DtDT2H8Oy2Zy8m2eVrNsAVKAexjcZXUckd"
      },
      "neo_reference_id" : "3720004",
      "name" : "(2015 KS120)",
      "nasa_jpl_url" : "http://ssd.jpl.nasa.gov/sbdb.cgi?sstr=3720004",
      "absolute_magnitude_h" : 25.4,
      "estimated_diameter" : {
        "kilometers" : {
          "estimated_diameter_min" : 0.022108281,
          "estimated_diameter_max" : 0.0494356193
        },
        "meters" : {
          "estimated_diameter_min" : 22.1082810359,
          "estimated_diameter_max" : 49.435619262
        },
        "miles" : {
          "estimated_diameter_min" : 0.0137374447,
          "estimated_diameter_max" : 0.0307178602
        },
        "feet" : {
          "estimated_diameter_min" : 72.5337327539,
          "estimated_diameter_max" : 162.1903570994
        }
      },
      "is_potentially_hazardous_asteroid" : false,
      "close_approach_data" : [ {
        "close_approach_date" : "2013-04-15",
        "epoch_date_close_approach" : 1366009200000,
        "relative_velocity" : {
          "kilometers_per_second" : "9.6992449062",
          "kilometers_per_hour" : "34917.2816623542",
          "miles_per_hour" : "21696.2409307"
        },
        "miss_distance" : {
          "astronomical" : "0.2110366455",
          "lunar" : "82.0932540894",
          "kilometers" : "31570634",
          "miles" : "19617082"
        },
        "orbiting_body" : "Earth"
      } ],
      "orbital_data" : {
        "orbit_id" : "5",
        "orbit_determination_date" : "2017-04-06 08:33:30",
        "orbit_uncertainty" : "5",
        "minimum_orbit_intersection" : ".0793883",
        "jupiter_tisserand_invariant" : "6.140",
        "epoch_osculation" : "2458000.5",
        "eccentricity" : ".1381437151559359",
        "semi_major_axis" : ".9835858827269298",
        "inclination" : "9.339441245642883",
        "ascending_node_longitude" : "234.5894684409763",
        "orbital_period" : "356.300848824915",
        "perihelion_distance" : ".847709674712101",
        "perihelion_argument" : "208.3038885317915",
        "aphelion_distance" : "1.119462090741759",
        "perihelion_time" : "2458084.176716119889",
        "mean_anomaly" : "275.4545438145653",
        "mean_motion" : "1.010382100371876",
        "equinox" : "J2000"
      }
    }, {
      "links" : {
        "self" : "https://api.nasa.gov/neo/rest/v1/neo/3764891?api_key=t0TVs3DtDT2H8Oy2Zy8m2eVrNsAVKAexjcZXUckd"
      },
      "neo_reference_id" : "3764891",
      "name" : "(2016 WG10)",
      "nasa_jpl_url" : "http://ssd.jpl.nasa.gov/sbdb.cgi?sstr=3764891",
      "absolute_magnitude_h" : 20.9,
      "estimated_diameter" : {
        "kilometers" : {
          "estimated_diameter_min" : 0.1756123185,
          "estimated_diameter_max" : 0.3926810818
        },
        "meters" : {
          "estimated_diameter_min" : 175.6123184804,
          "estimated_diameter_max" : 392.6810818086
        },
        "miles" : {
          "estimated_diameter_min" : 0.1091204019,
          "estimated_diameter_max" : 0.2440006365
        },
        "feet" : {
          "estimated_diameter_min" : 576.1559189633,
          "estimated_diameter_max" : 1288.3238004408
        }
      },
      "is_potentially_hazardous_asteroid" : false,
      "close_approach_data" : [ {
        "close_approach_date" : "2013-04-15",
        "epoch_date_close_approach" : 1366009200000,
        "relative_velocity" : {
          "kilometers_per_second" : "15.2993837625",
          "kilometers_per_hour" : "55077.7815448999",
          "miles_per_hour" : "34223.1915382741"
        },
        "miss_distance" : {
          "astronomical" : "0.1817187326",
          "lunar" : "70.6885910034",
          "kilometers" : "27184736",
          "miles" : "16891812"
        },
        "orbiting_body" : "Earth"
      } ],
      "orbital_data" : {
        "orbit_id" : "9",
        "orbit_determination_date" : "2017-04-25 06:18:00",
        "orbit_uncertainty" : "5",
        "minimum_orbit_intersection" : ".0768753",
        "jupiter_tisserand_invariant" : "3.105",
        "epoch_osculation" : "2458000.5",
        "eccentricity" : ".6608542129211368",
        "semi_major_axis" : "2.499278575795398",
        "inclination" : "10.57494502880711",
        "ascending_node_longitude" : "312.9508136827261",
        "orbital_period" : "1443.179749959744",
        "perihelion_distance" : ".8476197997174707",
        "perihelion_argument" : "199.7697147901511",
        "aphelion_distance" : "4.150937351873326",
        "perihelion_time" : "2457808.609024402052",
        "mean_anomaly" : "47.86704581822746",
        "mean_motion" : ".2494491763829431",
        "equinox" : "J2000"
      }
    } ]
  }
}